
# Worst residual: 16.92 km
# MJD 59976.000000 (2023 Feb  1  0:00)
A10SW44 = A10SS9h
1 79974U 23999ZZY 23032.49919926  .00000000  00000-0  00000-0 0 18830
2 79974 018.7368 245.4191 8150449 023.9634 339.5943 01.10707949    09

# Worst residual: 16.85 km
# MJD 59977.000000 (2023 Feb  2  0:00)
A10SW44 = A10SS9h
1 79974U 23999ZZY 23033.49919926  .00000000  00000-0  00000-0 0 18831
2 79974 018.6752 245.1901 8146746 024.3344 018.0427 01.10728888    00

# Worst residual: 13.33 km
# MJD 59978.000000 (2023 Feb  3  0:00)
A10SW44 = A10SS9h
1 79974U 23999ZZY 23034.49919926  .00000000  00000-0  00000-0 0 18832
2 79974 018.6113 244.9559 8143050 024.7100 056.4994 01.10732440    00

# Worst residual: 15.14 km
# MJD 59979.000000 (2023 Feb  4  0:00)
A10SW44 = A10SS9h
1 79974U 23999ZZY 23035.49919926  .00000000  00000-0  00000-0 0 18833
2 79974 018.5468 244.7222 8139456 025.0863 094.9495 01.10722347    00

# Worst residual: 24.43 km
# MJD 59980.000000 (2023 Feb  5  0:00)
A10SW44 = A10SS9h
1 79974U 23999ZZY 23036.49919926  .00000000  00000-0  00000-0 0 18834
2 79974 018.4824 244.4872 8135512 025.4661 133.3910 01.10709079    09

# Worst residual: 20.96 km
# MJD 59981.000000 (2023 Feb  6  0:00)
A10SW44 = A10SS9h
1 79974U 23999ZZY 23037.49919926  .00000000  00000-0  00000-0 0 18835
2 79974 018.4191 244.2517 8130993 025.8462 171.8275 01.10696550    01

# Worst residual: 17.06 km
# MJD 59982.000000 (2023 Feb  7  0:00)
A10SW44 = A10SS9h
1 79974U 23999ZZY 23038.49919926  .00000000  00000-0  00000-0 0 18836
2 79974 018.3554 244.0135 8125185 026.2258 210.2587 01.10678418    09

# Worst residual: 16.88 km
# MJD 59983.000000 (2023 Feb  8  0:00)
A10SW44 = A10SS9h
1 79974U 23999ZZY 23039.49919926  .00000000  00000-0  00000-0 0 18837
2 79974 018.2924 243.7702 8121342 026.6052 248.7040 01.10677503    06

# Worst residual: 15.69 km
# MJD 59984.000000 (2023 Feb  9  0:00)
A10SW44 = A10SS9h
1 79974U 23999ZZY 23040.49919926  .00000000  00000-0  00000-0 0 18839
2 79974 018.2293 243.5246 8117597 026.9898 287.1421 01.10683558    01

# Worst residual: 14.72 km
# MJD 59985.000000 (2023 Feb 10  0:00)
A10SW44 = A10SS9h
1 79974U 23999ZZY 23041.49919926  .00000000  00000-0  00000-0 0 18830
2 79974 018.1726 243.2899 8113415 027.3624 325.5844 01.10698447    08

# Worst residual: 16.22 km
# MJD 59986.000000 (2023 Feb 11  0:00)
A10SW44 = A10SS9h
1 79974U 23999ZZY 23042.49919926  .00000000  00000-0  00000-0 0 18831
2 79974 018.1182 243.0600 8108948 027.7289 004.0390 01.10718042    07

# Worst residual: 12.03 km
# MJD 59987.000000 (2023 Feb 12  0:00)
A10SW44 = A10SS9h
1 79974U 23999ZZY 23043.49919926  .00000000  00000-0  00000-0 0 18832
2 79974 018.0608 242.8255 8104556 028.0954 042.5096 01.10733477    05

# Worst residual: 13.59 km
# MJD 59988.000000 (2023 Feb 13  0:00)
A10SW44 = A10SS9h
1 79974U 23999ZZY 23044.49919926  .00000000  00000-0  00000-0 0 18833
2 79974 018.0058 242.5964 8100300 028.4577 080.9767 01.10729291    06

# Worst residual: 19.57 km
# MJD 59989.000000 (2023 Feb 14  0:00)
A10SW44 = A10SS9h
1 79974U 23999ZZY 23045.49919926  .00000000  00000-0  00000-0 0 18834
2 79974 017.9482 242.3621 8095732 028.8294 119.4324 01.10715488    05

# Worst residual: 24.05 km
# MJD 59990.000000 (2023 Feb 15  0:00)
A10SW44 = A10SS9h
1 79974U 23999ZZY 23046.49919926  .00000000  00000-0  00000-0 0 18835
2 79974 017.8925 242.1294 8090546 029.2020 157.8752 01.10700858    06

# Worst residual: 13.69 km
# MJD 59991.000000 (2023 Feb 16  0:00)
A10SW44 = A10SS9h
1 79974U 23999ZZY 23047.49919926  .00000000  00000-0  00000-0 0 18836
2 79974 017.8344 241.8916 8084717 029.5798 196.3062 01.10685661    02

# Worst residual: 20.43 km
# MJD 59992.000000 (2023 Feb 17  0:00)
A10SW44 = A10SS9h
1 79974U 23999ZZY 23048.49919926  .00000000  00000-0  00000-0 0 18837
2 79974 017.7814 241.6555 8079038 029.9456 234.7596 01.10677832    05

# Worst residual: 20.17 km
# MJD 59993.000000 (2023 Feb 18  0:00)
A10SW44 = A10SS9h
1 79974U 23999ZZY 23049.49919926  .00000000  00000-0  00000-0 0 18838
2 79974 017.7243 241.4093 8074112 030.3232 273.2059 01.10678051    08

# Worst residual: 17.30 km
# MJD 59994.000000 (2023 Feb 19  0:00)
A10SW44 = A10SS9h
1 79974U 23999ZZY 23050.49919926  .00000000  00000-0  00000-0 0 18830
2 79974 017.6692 241.1676 8069074 030.6983 311.6486 01.10685454    02

# Worst residual: 16.29 km
# MJD 59995.000000 (2023 Feb 20  0:00)
A10SW44 = A10SS9h
1 79974U 23999ZZY 23051.49919926  .00000000  00000-0  00000-0 0 18831
2 79974 017.6173 240.9289 8063514 031.0668 350.1033 01.10707575    06

# Worst residual: 15.70 km
# MJD 59996.000000 (2023 Feb 21  0:00)
A10SW44 = A10SS9h
1 79974U 23999ZZY 23052.49919926  .00000000  00000-0  00000-0 0 18832
2 79974 017.5677 240.6952 8057882 031.4261 028.5789 01.10727623    02

# Worst residual: 11.03 km
# MJD 59997.000000 (2023 Feb 22  0:00)
A10SW44 = A10SS9h
1 79974U 23999ZZY 23053.49919926  .00000000  00000-0  00000-0 0 18833
2 79974 017.5163 240.4651 8052601 031.7768 067.0666 01.10733578    03

# Worst residual: 13.66 km
# MJD 59998.000000 (2023 Feb 23  0:00)
A10SW44 = A10SS9h
1 79974U 23999ZZY 23054.49919926  .00000000  00000-0  00000-0 0 18834
2 79974 017.4657 240.2348 8047452 032.1306 105.5468 01.10724731    01

# Worst residual: 21.98 km
# MJD 59999.000000 (2023 Feb 24  0:00)
A10SW44 = A10SS9h
1 79974U 23999ZZY 23055.49919926  .00000000  00000-0  00000-0 0 18835
2 79974 017.4150 240.0037 8042050 032.4878 144.0182 01.10712611    03

# Worst residual: 19.66 km
# MJD 60000.000000 (2023 Feb 25  0:00)
A10SW44 = A10SS9h
1 79974U 23999ZZY 23056.49919926  .00000000  00000-0  00000-0 0 18836
2 79974 017.3655 239.7735 8036163 032.8444 182.4842 01.10699791    05

# Worst residual: 20.12 km
# MJD 60001.000000 (2023 Feb 26  0:00)
A10SW44 = A10SS9h
1 79974U 23999ZZY 23057.49919926  .00000000  00000-0  00000-0 0 18837
2 79974 017.3135 239.5324 8029071 033.2063 220.9524 01.10682126    01

# Worst residual: 21.12 km
# MJD 60002.000000 (2023 Feb 27  0:00)
A10SW44 = A10SS9h
1 79974U 23999ZZY 23058.49919926  .00000000  00000-0  00000-0 0 18838
2 79974 017.2632 239.2941 8023671 033.5634 259.4284 01.10679509    02

# Worst residual: 19.02 km
# MJD 60003.000000 (2023 Feb 28  0:00)
A10SW44 = A10SS9h
1 79974U 23999ZZY 23059.49919926  .00000000  00000-0  00000-0 0 18839
2 79974 017.2143 239.0518 8018271 033.9237 297.9001 01.10681692    00

# Worst residual: 15.20 km
# MJD 60004.000000 (2023 Mar  1  0:00)
A10SW44 = A10SS9h
1 79974U 23999ZZY 23060.49919926  .00000000  00000-0  00000-0 0 18831
2 79974 017.1703 238.8261 8012659 034.2693 336.3731 01.10698174    08

# Worst residual: 15.75 km
# MJD 60005.000000 (2023 Mar  2  0:00)
A10SW44 = A10SS9h
1 79974U 23999ZZY 23061.49919926  .00000000  00000-0  00000-0 0 18832
2 79974 017.1238 238.5914 8006618 034.6202 014.8601 01.10718704    07

# Worst residual: 11.48 km
# MJD 60006.000000 (2023 Mar  3  0:00)
A10SW44 = A10SS9h
1 79974U 23999ZZY 23062.49919926  .00000000  00000-0  00000-0 0 18833
2 79974 017.0813 238.3672 8000713 034.9572 053.3641 01.10733228    07
